DUBAISAT-1              
1 35682U 09041B   26198.34159234  .00000361  00000+0  61005-4 0  9990
2 35682  98.0087 331.2755 0009767 341.4736  18.6116 14.75168464909547
OCEANSAT-2              
1 35931U 09051A   26198.29520010 -.00000040  00000+0 -15635-5 0  9991
2 35931  98.2321 182.1407 0017478 147.4527 212.7721 13.99655921883548
WORLDVIEW-2 (WV-2)      
1 35946U 09055A   26198.29447607  .00000044  00000+0  29047-4 0  9994
2 35946  98.4755 271.3342 0005386 124.8063 235.3631 14.37907279879977
SMOS                    
1 36036U 09059A   26198.28132549  .00000104  00000+0  47000-4 0  9990
2 36036  98.4430  25.1752 0001166  98.3069 261.8252 14.39736670877788
YAOGAN-7                
1 36110U 09069A   26198.14703255  .00000189  00000+0  33467-4 0  9992
2 36110  98.0030  83.8237 0023391 304.7704  55.1305 14.78036478894050
TANDEM-X                
1 36605U 10030A   26188.47915494  .00000386  00000+0  21566-4 0  9992
2 36605  97.4457 195.8973 0001887  94.3019 265.8431 15.19154052889726
CARTOSAT-2B             
1 36795U 10035A   26198.31789039  .00000594  00000+0  88072-4 0  9991
2 36795  97.9935 248.6721 0012752  93.7394 266.5275 14.78653454864307
YAOGAN-10               
1 36834U 10038A   26198.34048372  .00000734  00000+0  91412-4 0  9997
2 36834  97.8966 221.5047 0001673  81.4845  46.9566 14.85433636861687
COSMO-SKYMED 4          
1 37216U 10060A   26198.28341263  .00000415  00000+0  58746-4 0  9994
2 37216  97.8889  21.4473 0001533  85.4417 274.6971 14.82150873849020
RESOURCESAT-2           
1 37387U 11015A   26198.21287144  .00000035  00000+0  36094-4 0  9994
2 37387  98.7631 265.4449 0011669 165.4715 194.6800 14.21599839790443
HAIYANG-2A              
1 37781U 11043A   26198.33384336  .00000312  00000+0  38420-3 0  9999
2 37781  99.3397 200.3177 0002085  25.2554 334.8696 13.73206272750796
RASAT                   
1 37791U 11044D   26198.29598373  .00000055  00000+0  18072-4 0  9990
2 37791  98.0586 289.2338 0021949  96.5238 299.4815 14.68193215797605
SRMSAT                  
1 37841U 11058D   26198.34105350  .00000327  00000+0  33542-4 0  9997
2 37841  19.9706 236.9573 0011712 174.7321 280.3088 14.11581363762084
PLEIADES 1A             
1 38012U 11076F   26198.31212274 -.00000089  00000+0 -93011-5 0  9994
2 38012  98.1971 273.0087 0001656  78.9089 350.8570 14.58546755776386
ZIYUAN 1-02C (ZY 1-02C) 
1 38038U 11079A   26198.34077758  .00000128  00000+0  56117-4 0  9991
2 38038  98.4060 265.0175 0005734 207.4435 225.4429 14.38236503763549
ARIRANG-3 (KOMPSAT-3)   
1 38338U 12025B   26198.27875399  .00000185  00000+0  45884-4 0  9997
2 38338  98.1186 155.2227 0006100  33.2766 326.8818 14.62230013755744
EXACTVIEW-1 (ADS-1B)    
1 38709U 12039C   26198.29302600  .00000033  00000+0  33876-4 0  9996
2 38709  98.9807 316.3673 0011948  86.0894 274.1650 14.24992522726995
SPOT 6                  
1 38755U 12047A   26198.31423691  .00000107  00000+0  32935-4 0  9990
2 38755  98.2108 265.2682 0001105  87.9863 272.1463 14.58539392737446
PLEIADES 1B             
1 39019U 12068A   26198.33283969  .00000123  00000+0  36238-4 0  9999
2 39019  98.1942 272.9676 0001552  78.4292 281.7081 14.58534988725243
GOKTURK 2               
1 39030U 12073A   26198.32510541  .00000323  00000+0  54269-4 0  9992
2 39030  97.6804  34.2442 0000982  99.0403 261.0918 14.75569868728951
LANDSAT 8               
1 39084U 13008A   26198.23949571  .00000103  00000+0  32947-4 0  9994
2 39084  98.2289 268.0158 0001360  91.2914 268.8440 14.57094951702275
SARAL                   
1 39086U 13009A   26198.27718365  .00000024  00000+0  24972-4 0  9997
2 39086  98.5556  24.4640 0001824 161.6715 198.4536 14.32896121699915
GAOFEN-1                
1 39150U 13018A   26198.28743282 -.00000056  00000+0 -70120-6 0  9991
2 39150  97.9086 269.7416 0017249 164.5577 195.6163 14.76518619712685
VNREDSAT 1              
1 39160U 13021B   26198.28042932  .00000246  00000+0  54457-4 0  9992
2 39160  97.9061 250.5393 0001544  80.5742 279.5636 14.64885219704692
ARIRANG-5 (KOMPSAT-5)   
1 39227U 13042A   26198.29432529 -.00000088  00000+0 -19450-5 0  9996
2 39227  97.6202  24.5716 0005202  52.6968 307.4732 15.04494887708383
SKYSAT-A                
1 39418U 13066C   26198.08357468  .00001507  00000+0  88285-4 0  9995
2 39418  97.3801 246.5281 0020637 206.5952 153.4222 15.13121185693005
DUBAISAT-2              
1 39419U 13066D   26198.21649385  .00001898  00000+0  11937-3 0  9995
2 39419  97.4578 187.5802 0009207 295.5823  64.4454 15.10383624690927
GPM-CORE                
1 39574U 14009C   26198.31156422  .00003143  00000+0  71539-4 0  9991
2 39574  64.9693 207.1931 0010923 262.6945  97.2954 15.45057814702464
SENTINEL-1A             
1 39634U 14016A   26198.12747764 -.00000104  00000+0 -12369-4 0  9992
2 39634  98.1769 205.2234 0001426  85.8154 274.3209 14.59195939654387
KAZEOSAT 1              
1 39731U 14024A   26198.34314535  .00000002  00000+0  13757-4 0  9996
2 39731  98.3198 270.0381 0001212  83.0705 277.0623 14.42037534642904
