OBJECT_NAME,OBJECT_ID,EPOCH,MEAN_MOTION,ECCENTRICITY,INCLINATION,RA_OF_ASC_NODE,ARG_OF_PERICENTER,MEAN_ANOMALY,EPHEMERIS_TYPE,CLASSIFICATION_TYPE,NORAD_CAT_ID,ELEMENT_SET_NO,REV_AT_EPOCH,BSTAR,MEAN_MOTION_DOT,MEAN_MOTION_DDOT
DUBAISAT-1,2009-041B,2026-07-17T08:11:53.578176,14.75168464,.00097671,98.0087,331.2755,341.4736,18.6116,0,U,35682,999,90954,.61005389E-4,.361E-5,0
OCEANSAT-2,2009-051A,2026-07-17T07:05:05.288640,13.99655921,.00174784,98.2321,182.1407,147.4527,212.7721,0,U,35931,999,88354,-.1563452E-5,-.4E-6,0
WORLDVIEW-2 (WV-2),2009-055A,2026-07-17T07:04:02.732448,14.37907279,.00053865,98.4755,271.3342,124.8063,235.3631,0,U,35946,999,87997,.29046769E-4,.44E-6,0
SMOS,2009-059A,2026-07-17T06:45:06.522336,14.39736670,.00011662,98.4430,25.1752,98.3069,261.8252,0,U,36036,999,87778,.47000167E-4,.104E-5,0
YAOGAN-7,2009-069A,2026-07-17T03:31:43.612320,14.78036478,.00233912,98.0030,83.8237,304.7704,55.1305,0,U,36110,999,89405,.33466736E-4,.189E-5,0
TANDEM-X,2010-030A,2026-07-07T11:29:58.986816,15.19154052,.0001887,97.4457,195.8973,94.3019,265.8431,0,U,36605,999,88972,.21566E-4,.386E-5,0
CARTOSAT-2B,2010-035A,2026-07-17T07:37:45.729696,14.78653454,.00127523,97.9935,248.6721,93.7394,266.5275,0,U,36795,999,86430,.88071728E-4,.594E-5,0
YAOGAN-10,2010-038A,2026-07-17T08:10:17.793408,14.85433636,.00016731,97.8966,221.5047,81.4845,46.9566,0,U,36834,999,86168,.91412122E-4,.734E-5,0
COSMO-SKYMED 4,2010-060A,2026-07-17T06:48:06.851232,14.82150873,.0001533,97.8889,21.4473,85.4417,274.6971,0,U,37216,999,84902,.58746184E-4,.415E-5,0
RESOURCESAT-2,2011-015A,2026-07-17T05:06:32.092416,14.21599839,.00116695,98.7631,265.4449,165.4715,194.6800,0,U,37387,999,79044,.36093672E-4,.35E-6,0
HAIYANG-2A,2011-043A,2026-07-17T08:00:44.066304,13.73206272,.00020852,99.3397,200.3177,25.2554,334.8696,0,U,37781,999,75079,.38419551E-3,.312E-5,0
RASAT,2011-044D,2026-07-17T07:06:12.994272,14.68193215,.00219497,98.0586,289.2338,96.5238,299.4815,0,U,37791,999,79760,.1807198E-4,.55E-6,0
SRMSAT,2011-058D,2026-07-17T08:11:07.022400,14.11581363,.00117124,19.9706,236.9573,174.7321,280.3088,0,U,37841,999,76208,.33542336E-4,.327E-5,0
PLEIADES 1A,2011-076F,2026-07-17T07:29:27.404736,14.58546755,.00016563,98.1971,273.0087,78.9089,350.8570,0,U,38012,999,77638,-.9301133E-5,-.89E-6,0
ZIYUAN 1-02C (ZY 1-02C),2011-079A,2026-07-17T08:10:43.182912,14.38236503,.00057344,98.4060,265.0175,207.4435,225.4429,0,U,38038,999,76354,.56116865E-4,.128E-5,0
ARIRANG-3 (KOMPSAT-3),2012-025B,2026-07-17T06:41:24.344736,14.62230013,.00061002,98.1186,155.2227,33.2766,326.8818,0,U,38338,999,75574,.45884245E-4,.185E-5,0
EXACTVIEW-1 (ADS-1B),2012-039C,2026-07-17T07:01:57.446400,14.24992522,.00119487,98.9807,316.3673,86.0894,274.1650,0,U,38709,999,72699,.33875554E-4,.33E-6,0
SPOT 6,2012-047A,2026-07-17T07:32:30.069024,14.58539392,.00011057,98.2108,265.2682,87.9863,272.1463,0,U,38755,999,73744,.32934602E-4,.107E-5,0
PLEIADES 1B,2012-068A,2026-07-17T07:59:17.349216,14.58534988,.0001552,98.1942,272.9676,78.4292,281.7081,0,U,39019,999,72524,.36237887E-4,.123E-5,0
GOKTURK 2,2012-073A,2026-07-17T07:48:09.107424,14.75569868,.00009824,97.6804,34.2442,99.0403,261.0918,0,U,39030,999,72895,.54268817E-4,.323E-5,0
LANDSAT 8,2013-008A,2026-07-17T05:44:52.429344,14.57094951,.00013607,98.2289,268.0158,91.2914,268.8440,0,U,39084,999,70227,.32946684E-4,.103E-5,0
SARAL,2013-009A,2026-07-17T06:39:08.667360,14.32896121,.00018243,98.5556,24.4640,161.6715,198.4536,0,U,39086,999,69991,.24972435E-4,.24E-6,0
GAOFEN-1,2013-018A,2026-07-17T06:53:54.195648,14.76518619,.00172492,97.9086,269.7416,164.5577,195.6163,0,U,39150,999,71268,-.701199E-6,-.56E-6,0
VNREDSAT 1,2013-021B,2026-07-17T06:43:49.093248,14.64885219,.00015447,97.9061,250.5393,80.5742,279.5636,0,U,39160,999,70469,.54457075E-4,.246E-5,0
ARIRANG-5 (KOMPSAT-5),2013-042A,2026-07-17T07:03:49.705056,15.04494887,.00052023,97.6202,24.5716,52.6968,307.4732,0,U,39227,999,70838,-.1945048E-5,-.88E-6,0
SKYSAT-A,2013-066C,2026-07-17T02:00:20.852352,15.13121185,.00206372,97.3801,246.5281,206.5952,153.4222,0,U,39418,999,69300,.88285304E-4,.1507E-4,0
DUBAISAT-2,2013-066D,2026-07-17T05:11:45.068640,15.10383624,.00092072,97.4578,187.5802,295.5823,64.4454,0,U,39419,999,69092,.1193711E-3,.1898E-4,0
GPM-CORE,2014-009C,2026-07-17T07:28:39.148608,15.45057814,.00109236,64.9693,207.1931,262.6945,97.2954,0,U,39574,999,70246,.7153919E-4,.3143E-4,0
SENTINEL-1A,2014-016A,2026-07-17T03:03:34.068096,14.59195939,.00014269,98.1769,205.2234,85.8154,274.3209,0,U,39634,999,65438,-.12369107E-4,-.104E-5,0
KAZEOSAT 1,2014-024A,2026-07-17T08:14:07.758240,14.42037534,.00012127,98.3198,270.0381,83.0705,277.0623,0,U,39731,999,64290,.1375654E-4,.2E-7,0
